{"type": "FeatureCollection", "features": [ {"type": "Feature", "properties": {"norad_id": 33825, "name": "COSMOS 2251 DEB", "group": "cosmos-2251-debris", "lat": 51.117503052349406, "lon": 25.965693670545637, "alt_km": 650.3812719587486, "timestamp": "2025-12-24T09:46:31.397522+00:00", "meta": {"OBJECT_NAME": "COSMOS 2251 DEB", "OBJECT_ID": "1993-036BS", "EPOCH": "2025-12-24T03:18:22.921056", "MEAN_MOTION": 14.6986884, "ECCENTRICITY": 0.0085102, "INCLINATION": 73.9851, "RA_OF_ASC_NODE": 5.6241, "ARG_OF_PERICENTER": 330.0281, "MEAN_ANOMALY": 97.4473, "EPHEMERIS_TYPE": 0, "CLASSIFICATION_TYPE": "U", "NORAD_CAT_ID": 33825, "ELEMENT_SET_NO": 999, "REV_AT_EPOCH": 89047, "BSTAR": 0.00099516, "MEAN_MOTION_DOT": 6.262e-05, "MEAN_MOTION_DDOT": 0}, "tle": {"line1": "1 33825U 93036BS  25358.13776529  .00006262  00000+0  99516-3 0  9993", "line2": "2 33825  73.9851   5.6241 0085102 330.0281  97.4473 14.69868840890473"}}, "geometry": {"type": "Point", "coordinates": [25.965693670545637, 51.117503052349406]}}, {"type": "Feature", "properties": {"norad_id": 33826, "name": "COSMOS 2251 DEB", "group": "cosmos-2251-debris", "lat": -73.15581011013273, "lon": -81.37058966632301, "alt_km": 783.0685862417304, "timestamp": "2025-12-24T09:46:31.397533+00:00", "meta": {"OBJECT_NAME": "COSMOS 2251 DEB", "OBJECT_ID": "1993-036BT", "EPOCH": "2025-12-24T03:51:44.168832", "MEAN_MOTION": 14.51770074, "ECCENTRICITY": 0.0082516, "INCLINATION": 74.0639, "RA_OF_ASC_NODE": 28.4031, "ARG_OF_PERICENTER": 68.902, "MEAN_ANOMALY": 348.7038, "EPHEMERIS_TYPE": 0, "CLASSIFICATION_TYPE": "U", "NORAD_CAT_ID": 33826, "ELEMENT_SET_NO": 999, "REV_AT_EPOCH": 87935, "BSTAR": 0.00045759, "MEAN_MOTION_DOT": 1.894e-05, "MEAN_MOTION_DDOT": 0}, "tle": {"line1": "1 33826U 93036BT  25358.16092788  .00001894  00000+0  45759-3 0  9991", "line2": "2 33826  74.0639  28.4031 0082516  68.9020 348.7038 14.51770074879359"}}, "geometry": {"type": "Point", "coordinates": [-81.37058966632301, -73.15581011013273]}}, {"type": "Feature", "properties": {"norad_id": 33828, "name": "COSMOS 2251 DEB", "group": "cosmos-2251-debris", "lat": -29.402052480984338, "lon": 45.67101953954007, "alt_km": 744.8427005413441, "timestamp": "2025-12-24T09:46:31.397545+00:00", "meta": {"OBJECT_NAME": "COSMOS 2251 DEB", "OBJECT_ID": "1993-036BV", "EPOCH": "2025-12-24T01:11:07.257120", "MEAN_MOTION": 14.44363816, "ECCENTRICITY": 0.002952, "INCLINATION": 74.0451, "RA_OF_ASC_NODE": 217.0592, "ARG_OF_PERICENTER": 288.2625, "MEAN_ANOMALY": 222.3509, "EPHEMERIS_TYPE": 0, "CLASSIFICATION_TYPE": "U", "NORAD_CAT_ID": 33828, "ELEMENT_SET_NO": 999, "REV_AT_EPOCH": 88476, "BSTAR": 0.00036717, "MEAN_MOTION_DOT": 1.244e-05, "MEAN_MOTION_DDOT": 0}, "tle": {"line1": "1 33828U 93036BV  25358.04938955  .00001244  00000+0  36717-3 0  9998", "line2": "2 33828  74.0451 217.0592 0029520 288.2625 222.3509 14.44363816884760"}}, "geometry": {"type": "Point", "coordinates": [45.67101953954007, -29.402052480984338]}}, {"type": "Feature", "properties": {"norad_id": 33830, "name": "COSMOS 2251 DEB", "group": "cosmos-2251-debris", "lat": 14.03880809650339, "lon": -148.4048626284931, "alt_km": 619.8935068150195, "timestamp": "2025-12-24T09:46:31.397556+00:00", "meta": {"OBJECT_NAME": "COSMOS 2251 DEB", "OBJECT_ID": "1993-036BX", "EPOCH": "2025-12-24T00:38:07.879776", "MEAN_MOTION": 14.77011696, "ECCENTRICITY": 0.0042732, "INCLINATION": 74.0307, "RA_OF_ASC_NODE": 208.2356, "ARG_OF_PERICENTER": 326.0139, "MEAN_ANOMALY": 184.2295, "EPHEMERIS_TYPE": 0, "CLASSIFICATION_TYPE": "U", "NORAD_CAT_ID": 33830, "ELEMENT_SET_NO": 999, "REV_AT_EPOCH": 89638, "BSTAR": 0.00075639, "MEAN_MOTION_DOT": 5.383e-05, "MEAN_MOTION_DDOT": 0}, "tle": {"line1": "1 33830U 93036BX  25358.02648009  .00005383  00000+0  75639-3 0  9991", "line2": "2 33830  74.0307 208.2356 0042732 326.0139 184.2295 14.77011696896385"}}, "geometry": {"type": "Point", "coordinates": [-148.4048626284931, 14.03880809650339]}}, {"type": "Feature", "properties": {"norad_id": 33832, "name": "COSMOS 2251 DEB", "group": "cosmos-2251-debris", "lat": 69.84404008450336, "lon": -43.45949412414561, "alt_km": 690.4411898484459, "timestamp": "2025-12-24T09:46:31.397566+00:00", "meta": {"OBJECT_NAME": "COSMOS 2251 DEB", "OBJECT_ID": "1993-036BZ", "EPOCH": "2025-12-23T22:19:32.963232", "MEAN_MOTION": 14.60771945, "ECCENTRICITY": 0.0024089, "INCLINATION": 74.0526, "RA_OF_ASC_NODE": 188.6209, "ARG_OF_PERICENTER": 217.5194, "MEAN_ANOMALY": 257.4349, "EPHEMERIS_TYPE": 0, "CLASSIFICATION_TYPE": "U", "NORAD_CAT_ID": 33832, "ELEMENT_SET_NO": 999, "REV_AT_EPOCH": 88588, "BSTAR": 0.0013829, "MEAN_MOTION_DOT": 6.754e-05, "MEAN_MOTION_DDOT": 0}, "tle": {"line1": "1 33832U 93036BZ  25357.93024263  .00006754  00000+0  13829-2 0  9997", "line2": "2 33832  74.0526 188.6209 0024089 217.5194 257.4349 14.60771945885886"}}, "geometry": {"type": "Point", "coordinates": [-43.45949412414561, 69.84404008450336]}}, {"type": "Feature", "properties": {"norad_id": 33835, "name": "COSMOS 2251 DEB", "group": "cosmos-2251-debris", "lat": 4.041942062151243, "lon": 79.95004766849836, "alt_km": 709.16455554599, "timestamp": "2025-12-24T09:46:31.397577+00:00", "meta": {"OBJECT_NAME": "COSMOS 2251 DEB", "OBJECT_ID": "1993-036CC", "EPOCH": "2025-12-23T05:56:40.433280", "MEAN_MOTION": 14.6234525, "ECCENTRICITY": 0.00538517, "INCLINATION": 74.0572, "RA_OF_ASC_NODE": 81.01, "ARG_OF_PERICENTER": 131.4814, "MEAN_ANOMALY": 251.1024, "EPHEMERIS_TYPE": 0, "CLASSIFICATION_TYPE": "U", "NORAD_CAT_ID": 33835, "ELEMENT_SET_NO": 999, "REV_AT_EPOCH": 88943, "BSTAR": 0.00092282942, "MEAN_MOTION_DOT": 4.733e-05, "MEAN_MOTION_DDOT": 0}, "tle": {"line1": "1 33835U 93036CC  25357.24769020  .00004733  00000+0  92283-3 0  9998", "line2": "2 33835  74.0572  81.0100 0053851 131.4814 251.1024 14.62345250889432"}}, "geometry": {"type": "Point", "coordinates": [79.95004766849836, 4.041942062151243]}}, {"type": "Feature", "properties": {"norad_id": 33836, "name": "COSMOS 2251 DEB", "group": "cosmos-2251-debris", "lat": 37.26875322908441, "lon": -111.45912804154239, "alt_km": 615.7221724762076, "timestamp": "2025-12-24T09:46:31.397587+00:00", "meta": {"OBJECT_NAME": "COSMOS 2251 DEB", "OBJECT_ID": "1993-036CD", "EPOCH": "2025-12-23T03:29:31.689888", "MEAN_MOTION": 14.79785856, "ECCENTRICITY": 0.00227896, "INCLINATION": 73.9961, "RA_OF_ASC_NODE": 238.4155, "ARG_OF_PERICENTER": 87.573, "MEAN_ANOMALY": 72.5934, "EPHEMERIS_TYPE": 0, "CLASSIFICATION_TYPE": "U", "NORAD_CAT_ID": 33836, "ELEMENT_SET_NO": 999, "REV_AT_EPOCH": 64242, "BSTAR": 0.0012029969, "MEAN_MOTION_DOT": 9.073e-05, "MEAN_MOTION_DDOT": 0}, "tle": {"line1": "1 33836U 93036CD  25357.14550567  .00009073  00000+0  12030-2 0  9995", "line2": "2 33836  73.9961 238.4155 0022789  87.5730  72.5934 14.79785856642424"}}, "geometry": {"type": "Point", "coordinates": [-111.45912804154239, 37.26875322908441]}}, {"type": "Feature", "properties": {"norad_id": 33837, "name": "COSMOS 2251 DEB", "group": "cosmos-2251-debris", "lat": -57.312832514451095, "lon": -119.8295187604744, "alt_km": 705.1103070118033, "timestamp": "2025-12-24T09:46:31.397597+00:00", "meta": {"OBJECT_NAME": "COSMOS 2251 DEB", "OBJECT_ID": "1993-036CE", "EPOCH": "2025-12-23T11:09:00.922464", "MEAN_MOTION": 14.50722608, "ECCENTRICITY": 0.00358961, "INCLINATION": 74.0124, "RA_OF_ASC_NODE": 35.4061, "ARG_OF_PERICENTER": 255.4273, "MEAN_ANOMALY": 104.2905, "EPHEMERIS_TYPE": 0, "CLASSIFICATION_TYPE": "U", "NORAD_CAT_ID": 33837, "ELEMENT_SET_NO": 999, "REV_AT_EPOCH": 88951, "BSTAR": 0.00022621397, "MEAN_MOTION_DOT": 8.68e-06, "MEAN_MOTION_DDOT": 0}, "tle": {"line1": "1 33837U 93036CE  25357.46459401  .00000868  00000+0  22621-3 0  9997", "line2": "2 33837  74.0124  35.4061 0035896 255.4273 104.2905 14.50722608889519"}}, "geometry": {"type": "Point", "coordinates": [-119.8295187604744, -57.312832514451095]}}, {"type": "Feature", "properties": {"norad_id": 33838, "name": "COSMOS 2251 DEB", "group": "cosmos-2251-debris", "lat": 15.202900163899486, "lon": 132.42481290450203, "alt_km": 743.2718341108566, "timestamp": "2025-12-24T09:46:31.397607+00:00", "meta": {"OBJECT_NAME": "COSMOS 2251 DEB", "OBJECT_ID": "1993-036CF", "EPOCH": "2025-12-23T15:34:17.107104", "MEAN_MOTION": 14.48394985, "ECCENTRICITY": 0.00274788, "INCLINATION": 74.0364, "RA_OF_ASC_NODE": 129.3835, "ARG_OF_PERICENTER": 249.7787, "MEAN_ANOMALY": 132.5348, "EPHEMERIS_TYPE": 0, "CLASSIFICATION_TYPE": "U", "NORAD_CAT_ID": 33838, "ELEMENT_SET_NO": 999, "REV_AT_EPOCH": 88727, "BSTAR": 0.00039028626, "MEAN_MOTION_DOT": 1.441e-05, "MEAN_MOTION_DDOT": 0}, "tle": {"line1": "1 33838U 93036CF  25357.64880911  .00001441  00000+0  39029-3 0  9990", "line2": "2 33838  74.0364 129.3835 0027478 249.7787 132.5348 14.48394985887277"}}, "geometry": {"type": "Point", "coordinates": [132.42481290450203, 15.202900163899486]}}, {"type": "Feature", "properties": {"norad_id": 33839, "name": "COSMOS 2251 DEB", "group": "cosmos-2251-debris", "lat": -68.40298616240965, "lon": 50.36662458085279, "alt_km": 638.2374858479361, "timestamp": "2025-12-24T09:46:31.397618+00:00", "meta": {"OBJECT_NAME": "COSMOS 2251 DEB", "OBJECT_ID": "1993-036CG", "EPOCH": "2025-12-23T19:33:34.360128", "MEAN_MOTION": 14.64445826, "ECCENTRICITY": 0.00853576, "INCLINATION": 74.0374, "RA_OF_ASC_NODE": 185.1983, "ARG_OF_PERICENTER": 294.7494, "MEAN_ANOMALY": 79.6279, "EPHEMERIS_TYPE": 0, "CLASSIFICATION_TYPE": "U", "NORAD_CAT_ID": 33839, "ELEMENT_SET_NO": 999, "REV_AT_EPOCH": 89742, "BSTAR": 0.00019226296, "MEAN_MOTION_DOT": 1.039e-05, "MEAN_MOTION_DDOT": 0}, "tle": {"line1": "1 33839U 93036CG  25357.81498102  .00001039  00000+0  19226-3 0  9997", "line2": "2 33839  74.0374 185.1983 0085357 294.7494  79.6279 14.64445826897429"}}, "geometry": {"type": "Point", "coordinates": [50.36662458085279, -68.40298616240965]}}]}